{
    "links": {
        "self": "http://www.neowsapp.com/rest/v1/neo/3836734?api_key=iIulBulltgU6a56xZRHN4H3l9WmuAYTsLGpBGhQ2"
    },
    "id": "3836734",
    "neo_reference_id": "3836734",
    "name": "(2018 XT)",
    "designation": "2018 XT",
    "nasa_jpl_url": "http://ssd.jpl.nasa.gov/sbdb.cgi?sstr=3836734",
    "absolute_magnitude_h": 25.9,
    "estimated_diameter": {
        "kilometers": {
            "estimated_diameter_min": 0.0175612318,
            "estimated_diameter_max": 0.0392681082
        },
        "meters": {
            "estimated_diameter_min": 17.561231848,
            "estimated_diameter_max": 39.2681081809
        },
        "miles": {
            "estimated_diameter_min": 0.0109120402,
            "estimated_diameter_max": 0.0244000636
        },
        "feet": {
            "estimated_diameter_min": 57.6155918963,
            "estimated_diameter_max": 128.8323800441
        }
    },
    "is_potentially_hazardous_asteroid": false,
    "close_approach_data": [
        {
            "close_approach_date": "2018-11-29",
            "close_approach_date_full": "2018-Nov-29 06:08",
            "epoch_date_close_approach": 1543471680000,
            "relative_velocity": {
                "kilometers_per_second": "18.6720436355",
                "kilometers_per_hour": "67219.3570879746",
                "miles_per_hour": "41767.4944083584"
            },
            "miss_distance": {
                "astronomical": "0.0298586357",
                "lunar": "11.6150092873",
                "kilometers": "4466788.301825959",
                "miles": "2775533.5475538742"
            },
            "orbiting_body": "Earth"
        },
        {
            "close_approach_date": "2142-06-18",
            "close_approach_date_full": "2142-Jun-18 19:57",
            "epoch_date_close_approach": 5442407820000,
            "relative_velocity": {
                "kilometers_per_second": "19.0073165975",
                "kilometers_per_hour": "68426.3397508898",
                "miles_per_hour": "42517.4664968793"
            },
            "miss_distance": {
                "astronomical": "0.0631071867",
                "lunar": "24.5486956263",
                "kilometers": "9440700.712012329",
                "miles": "5866179.4040909802"
            },
            "orbiting_body": "Earth"
        }
    ],
    "orbital_data": {
        "orbit_id": "2",
        "orbit_determination_date": "2019-01-19 07:36:24",
        "first_observation_date": "2018-12-04",
        "last_observation_date": "2018-12-10",
        "data_arc_in_days": 6,
        "observations_used": 50,
        "orbit_uncertainty": "8",
        "minimum_orbit_intersection": ".0100008",
        "jupiter_tisserand_invariant": "3.729",
        "epoch_osculation": "2458457.5",
        "eccentricity": ".6250194385238294",
        "semi_major_axis": "1.855944835442066",
        "inclination": "7.016015265389521",
        "ascending_node_longitude": "249.4984262729194",
        "orbital_period": "923.5193981916766",
        "perihelion_distance": ".6959432364628652",
        "perihelion_argument": "98.6639888781915",
        "aphelion_distance": "3.015946434421267",
        "perihelion_time": "2458405.836156649164",
        "mean_anomaly": "20.13924519909298",
        "mean_motion": ".3898131438331542",
        "equinox": "J2000",
        "orbit_class": {
            "orbit_class_type": "APO",
            "orbit_class_description": "Near-Earth asteroid orbits which cross the Earth’s orbit similar to that of 1862 Apollo",
            "orbit_class_range": "a (semi-major axis) > 1.0 AU; q (perihelion) < 1.017 AU"
        }
    },
    "is_sentry_object": false
}